{"type":"FeatureCollection","features":[{"type":"Feature","properties":{},"geometry":{"type":"Polygon","coordinates":[[[73.395313,3.229395],[73.384961,3.271387],[73.427734,3.289844],[73.442773,3.274316],[73.434961,3.250146],[73.395313,3.229395]]]}},{"type":"Feature","properties":{},"geometry":{"type":"Polygon","coordinates":[[[73.494824,4.155176],[73.473047,4.170703],[73.517773,4.247656],[73.52832,4.243311],[73.519043,4.186865],[73.494824,4.155176]]]}},{"type":"Feature","properties":{},"geometry":{"type":"Polygon","coordinates":[[[80.935449,8.971484],[81.016016,8.932617],[81.198242,8.661963],[81.219238,8.608398],[81.226953,8.505518],[81.333984,8.47207],[81.372852,8.431445],[81.422168,8.215234],[81.422168,8.147852],[81.66543,7.782471],[81.68291,7.684473],[81.727344,7.625],[81.79668,7.464795],[81.832031,7.428418],[81.874121,7.28833],[81.876953,7.020459],[81.861426,6.90127],[81.767773,6.614307],[81.712695,6.511865],[81.637402,6.425146],[81.37998,6.240918],[81.30625,6.203857],[80.971094,6.088379],[80.724121,5.979053],[80.495801,5.949365],[80.267383,6.009766],[80.095313,6.153174],[80.007227,6.364404],[79.859375,6.829297],[79.79209,7.585205],[79.707812,8.065674],[79.712988,8.182324],[79.749805,8.294238],[79.749707,8.048877],[79.783496,8.018457],[79.808887,8.05],[79.850879,8.411572],[79.941797,8.691504],[79.928906,8.899219],[80.064844,9.095654],[80.099609,9.209961],[80.118359,9.326855],[80.086328,9.577832],[80.196094,9.538135],[80.317969,9.46543],[80.42832,9.480957],[80.385352,9.548779],[80.257617,9.611279],[80.045801,9.649902],[79.979492,9.699365],[79.954004,9.742334],[79.982324,9.812695],[80.252832,9.796338],[80.375977,9.642334],[80.711133,9.366357],[80.893457,9.085889],[80.935449,8.971484]]]}},{"type":"Feature","properties":{},"geometry":{"type":"Polygon","coordinates":[[[73.079492,8.316504],[73.05332,8.256689],[73.028516,8.253516],[73.026074,8.275293],[73.038965,8.264844],[73.055859,8.274561],[73.079492,8.316504]]]}},{"type":"Feature","properties":{},"geometry":{"type":"Polygon","coordinates":[[[79.766797,9.069775],[79.747656,9.10459],[79.859961,9.065723],[79.903711,8.975],[79.766797,9.069775]]]}},{"type":"Feature","properties":{},"geometry":{"type":"Polygon","coordinates":[[[92.809277,9.173389],[92.7875,9.13667],[92.743555,9.130957],[92.716602,9.165088],[92.713281,9.204883],[92.762109,9.243896],[92.785742,9.240527],[92.809277,9.173389]]]}},{"type":"Feature","properties":{},"geometry":{"type":"Polygon","coordinates":[[[79.969531,9.630664],[79.906836,9.619824],[79.845703,9.714648],[79.872266,9.744336],[79.888477,9.741162],[79.911914,9.67915],[79.969531,9.630664]]]}},{"type":"Feature","properties":{},"geometry":{"type":"Polygon","coordinates":[[[92.510352,10.897461],[92.554004,10.799805],[92.574316,10.704248],[92.472656,10.520752],[92.369531,10.547412],[92.377148,10.650586],[92.352832,10.751123],[92.370703,10.793506],[92.447852,10.865527],[92.510352,10.897461]]]}},{"type":"Feature","properties":{},"geometry":{"type":"Polygon","coordinates":[[[72.792676,11.262744],[72.787891,11.215918],[72.773047,11.196094],[72.772461,11.214258],[72.792676,11.262744]]]}},{"type":"Feature","properties":{},"geometry":{"type":"Polygon","coordinates":[[[92.693164,11.381152],[92.644531,11.361328],[92.595703,11.386426],[92.633887,11.426758],[92.640234,11.509131],[92.690039,11.463428],[92.693164,11.381152]]]}},{"type":"Feature","properties":{},"geometry":{"type":"Polygon","coordinates":[[[92.566504,11.930518],[92.60752,11.949512],[92.631836,12.013867],[92.640625,12.112207],[92.676465,12.192383],[92.694727,12.214697],[92.788281,12.225781],[92.777637,12.302539],[92.718945,12.357324],[92.720703,12.54126],[92.732031,12.615625],[92.75918,12.669092],[92.740039,12.779639],[92.753125,12.820898],[92.807031,12.878906],[92.830859,13.002637],[92.808984,13.0396],[92.860156,13.230566],[92.857324,13.358105],[92.924609,13.48584],[93.029395,13.543848],[93.062305,13.545459],[93.07666,13.400684],[93.016016,13.336182],[93.073828,13.2521],[93.066113,13.221582],[93.004687,13.089355],[92.951367,13.0625],[92.88623,12.942285],[92.965039,12.850488],[92.990234,12.538525],[92.932617,12.453076],[92.863672,12.436035],[92.879492,12.22793],[92.78623,12.034668],[92.747656,11.992773],[92.763965,11.94043],[92.796777,11.917529],[92.797559,11.874658],[92.766992,11.764648],[92.764648,11.63916],[92.700781,11.512549],[92.668359,11.538721],[92.575586,11.718213],[92.559668,11.833447],[92.533887,11.873389],[92.566504,11.930518]]]}},{"type":"Feature","properties":{},"geometry":{"type":"Polygon","coordinates":[[[92.685742,12.799951],[92.679688,12.939258],[92.710645,12.961572],[92.730859,12.948535],[92.717578,12.864893],[92.685742,12.799951]]]}},{"type":"Feature","properties":{},"geometry":{"type":"Polygon","coordinates":[[[97.710352,15.875537],[97.584277,16.01958],[97.640625,16.253857],[97.633691,16.457666],[97.664648,16.520459],[97.725977,16.568555],[97.619629,16.537207],[97.375879,16.522949],[97.331055,16.671777],[97.26748,16.743115],[97.211719,16.892578],[97.17832,17.062012],[97.200195,17.09541],[97.100195,17.164551],[96.970117,17.317334],[96.851465,17.401025],[96.909766,17.304834],[96.850879,17.20293],[96.908594,17.030957],[96.810645,16.778369],[96.76543,16.710352],[96.622461,16.563916],[96.506641,16.514355],[96.431152,16.504932],[96.364355,16.520508],[96.282227,16.595996],[96.248926,16.765332],[96.220313,16.780566],[96.189063,16.768311],[96.237695,16.63125],[96.236719,16.567432],[96.324316,16.444434],[96.293066,16.410059],[96.135059,16.342529],[96.080957,16.353369],[96.042871,16.339941],[96.012305,16.253711],[95.763281,16.169043],[95.679492,15.976758],[95.555664,15.837842],[95.389551,15.722754],[95.301465,15.756152],[95.307813,15.88042],[95.364746,15.985449],[95.346777,16.097607],[95.333008,16.033252],[95.176953,15.825684],[95.07832,15.83916],[94.942578,15.818262],[94.891211,15.979102],[94.882227,16.087939],[94.893164,16.182812],[94.847754,16.032861],[94.798145,15.971094],[94.661523,15.904395],[94.651367,16.064844],[94.680762,16.133301],[94.676562,16.242041],[94.719922,16.39873],[94.70332,16.511914],[94.665234,16.336133],[94.5875,16.288818],[94.495703,16.186133],[94.441602,16.094385],[94.299023,16.007617],[94.223828,16.016455],[94.214258,16.126611],[94.271289,16.517285],[94.327344,16.572168],[94.353418,16.639941],[94.4,16.868164],[94.452441,16.954492],[94.473145,17.135449],[94.564453,17.308545],[94.588965,17.569336],[94.560059,17.698975],[94.494336,17.824609],[94.430762,18.20166],[94.26582,18.507227],[94.252148,18.60918],[94.170703,18.732422],[94.245703,18.741162],[94.091309,18.849219],[94.07002,18.893408],[94.038965,19.146191],[94.044922,19.287402],[94.022461,19.268799],[94.001563,19.181787],[93.941016,19.146094],[93.968066,18.995068],[93.929199,18.899658],[93.800098,18.960596],[93.705469,19.026904],[93.493066,19.369482],[93.530566,19.397559],[93.578613,19.401172],[93.728027,19.266504],[93.824902,19.238477],[93.962012,19.329346],[93.998145,19.440869],[93.960742,19.481689],[93.839551,19.534131],[93.769922,19.60957],[93.739551,19.697266],[93.611719,19.776074],[93.707031,19.912158],[93.581836,19.90957],[93.40957,20.03833],[93.362305,20.058301],[93.25,20.070117],[93.156641,20.040771],[93.199023,19.89834],[93.190625,19.851221],[93.129492,19.858008],[93.001953,20.074854],[93.095508,20.181348],[93.015137,20.185254],[93.066797,20.377637],[93.035352,20.406152],[92.990723,20.287988],[92.882129,20.152148],[92.82832,20.177588],[92.791211,20.211426],[92.891113,20.340332],[92.850684,20.414844],[92.786914,20.469043],[92.735645,20.562695],[92.708984,20.563965],[92.732617,20.453369],[92.722852,20.295605],[92.608008,20.469873],[92.324121,20.791846],[92.307813,20.79043],[92.194629,20.984277],[92.056055,21.174805],[92.010938,21.51626],[92.008008,21.684766],[91.913184,21.883057],[91.824805,22.228662],[91.863379,22.350488],[91.79707,22.297461],[91.692969,22.504785],[91.529688,22.707666],[91.482129,22.797412],[91.480078,22.884814],[91.40957,22.797021],[91.31377,22.735156],[91.216211,22.642236],[91.151367,22.614063],[90.945605,22.597021],[90.826758,22.721387],[90.65625,23.025488],[90.633594,23.094238],[90.656055,23.273047],[90.615625,23.442334],[90.604004,23.591357],[90.573438,23.578125],[90.561621,23.537109],[90.555664,23.421533],[90.269141,23.455859],[90.391504,23.366943],[90.522754,23.346143],[90.590918,23.266406],[90.595117,23.133936],[90.466016,23.053906],[90.477539,22.986768],[90.552246,22.904883],[90.461621,22.881787],[90.436914,22.828174],[90.435059,22.751904],[90.498438,22.634814],[90.487402,22.588721],[90.595508,22.43584],[90.616113,22.362158],[90.589453,22.258447],[90.355762,22.048242],[90.288184,21.899414],[90.230566,21.829785],[90.158789,21.816846],[90.071191,21.887256],[90.07002,21.959912],[90.087891,22.01748],[90.20957,22.156592],[90.143457,22.137891],[89.954199,22.022852],[89.918066,22.116162],[89.894043,22.202588],[89.893848,22.308398],[89.985156,22.466406],[89.881836,22.387598],[89.853223,22.288965],[89.86582,22.173047],[89.852539,22.090918],[89.811914,21.983496],[89.756836,21.919043],[89.667773,21.877686],[89.628125,21.81416],[89.568555,21.767432],[89.547461,21.983691],[89.483203,22.275537],[89.469336,22.212939],[89.502539,22.031885],[89.500586,21.914355],[89.451953,21.821094],[89.353711,21.721094],[89.278613,21.706982],[89.234277,21.722363],[89.093945,21.872754],[89.081641,22.014941],[89.051465,22.093164],[89.02793,21.937207],[88.949316,21.937939],[89.019629,21.833643],[89.05166,21.654102],[88.96709,21.641357],[88.907422,21.653076],[88.85752,21.744678],[88.834375,21.661377],[88.74502,21.584375],[88.694727,21.662402],[88.691211,21.733496],[88.740234,22.00542],[88.708301,22.056152],[88.65957,22.066943],[88.641602,22.121973],[88.566797,21.832129],[88.599805,21.71377],[88.584668,21.659717],[88.445996,21.614258],[88.305469,21.72334],[88.2875,21.758203],[88.253711,21.622314],[88.12207,21.635791],[88.056836,21.694141],[88.181055,22.03291],[88.196289,22.139551],[87.994434,22.265674],[87.941406,22.374316],[87.961621,22.255029],[88.159277,22.121729],[88.050781,22.001074],[87.948438,21.825439],[87.82373,21.727344],[87.678223,21.653516],[87.200684,21.544873],[87.100684,21.500781],[86.954102,21.365332],[86.85957,21.236719],[86.842285,21.106348],[86.895801,20.965576],[86.939355,20.745068],[86.975488,20.700146],[86.924512,20.619775],[86.835938,20.534326],[86.7625,20.419141],[86.769238,20.355908],[86.750391,20.313232],[86.49873,20.171631],[86.376563,20.006738],[86.293652,20.05376],[86.245215,20.053027],[86.311914,19.987793],[86.30293,19.944678],[86.279492,19.919434],[86.216211,19.895801],[85.85293,19.791748],[85.575,19.69292],[85.496875,19.696924],[85.511133,19.726904],[85.559766,19.753467],[85.555078,19.866895],[85.504102,19.887695],[85.459961,19.895898],[85.248633,19.757666],[85.162793,19.620898],[85.180762,19.594873],[85.228516,19.601318],[85.370898,19.678906],[85.436914,19.656885],[85.441602,19.626562],[85.225586,19.50835],[84.770996,19.125391],[84.749805,19.050098],[84.69082,18.964697],[84.609375,18.884326],[84.462793,18.689746],[84.181738,18.400586],[84.104102,18.292676],[83.654297,18.069873],[83.572266,18.003613],[83.387988,17.78667],[83.19834,17.608984],[82.976855,17.461816],[82.593164,17.273926],[82.35957,17.096191],[82.286523,16.978076],[82.281934,16.936084],[82.35,16.825195],[82.359766,16.782812],[82.327148,16.664355],[82.258789,16.559863],[82.141504,16.485352],[81.761914,16.329492],[81.401855,16.365234],[81.286133,16.337061],[81.238574,16.263965],[81.132129,15.961768],[81.030078,15.881445],[80.978711,15.75835],[80.917773,15.759668],[80.864746,15.782227],[80.825977,15.765918],[80.781836,15.867334],[80.646582,15.89502],[80.384863,15.792773],[80.293457,15.710742],[80.101074,15.323633],[80.053418,15.074023],[80.098633,14.798242],[80.16543,14.577832],[80.178711,14.47832],[80.170117,14.349414],[80.111719,14.212207],[80.143652,14.058936],[80.224414,13.858203],[80.245801,13.68584],[80.306543,13.485059],[80.265625,13.521289],[80.233398,13.605762],[80.15625,13.71377],[80.062109,13.60625],[80.114258,13.528711],[80.290332,13.436719],[80.342383,13.361328],[80.229102,12.690332],[80.143066,12.452002],[79.981738,12.235449],[79.858496,11.98877],[79.771387,11.690234],[79.754102,11.575293],[79.793359,11.44668],[79.693164,11.312549],[79.799023,11.338672],[79.835254,11.268848],[79.848633,11.196875],[79.838184,10.322559],[79.667383,10.299707],[79.531641,10.329639],[79.390527,10.305957],[79.314551,10.256689],[79.253613,10.174805],[79.257812,10.035205],[78.996289,9.683105],[78.939941,9.565771],[78.919141,9.452881],[78.953125,9.393799],[79.019922,9.33335],[79.275488,9.284619],[79.356348,9.252148],[79.411426,9.192383],[79.212891,9.256006],[78.97959,9.268555],[78.421484,9.105029],[78.274512,8.990186],[78.19248,8.890869],[78.136035,8.663379],[78.126367,8.511328],[78.060156,8.38457],[77.770312,8.189844],[77.587207,8.129883],[77.517578,8.07832],[77.301465,8.145312],[77.065918,8.315918],[76.966895,8.407275],[76.617285,8.84707],[76.553418,8.902783],[76.48291,9.090771],[76.471777,9.16084],[76.403125,9.236816],[76.324609,9.4521],[76.242383,9.9271],[76.284668,9.909863],[76.343066,9.827344],[76.372266,9.707373],[76.375586,9.539893],[76.419531,9.520459],[76.458789,9.53623],[76.346484,9.922119],[76.24873,10.017969],[76.222754,10.024268],[76.195605,10.086133],[76.201465,10.200635],[76.12334,10.327002],[75.922559,10.784082],[75.844629,11.057568],[75.723828,11.361768],[75.646094,11.468408],[75.524512,11.703125],[75.314648,11.958447],[75.19668,12.05752],[74.945508,12.564551],[74.868262,12.84458],[74.770508,13.077344],[74.682324,13.506934],[74.670898,13.667627],[74.608496,13.849658],[74.498535,14.046338],[74.466992,14.216504],[74.397168,14.407422],[74.382227,14.494727],[74.280371,14.649512],[73.949219,15.074756],[73.884277,15.306445],[73.800781,15.396973],[73.931934,15.396973],[73.771777,15.573047],[73.832813,15.659375],[73.732813,15.656934],[73.679883,15.708887],[73.607715,15.871094],[73.476074,16.054248],[73.453711,16.1521],[73.337598,16.459863],[73.23916,17.198535],[73.149023,17.527441],[73.156055,17.621924],[73.047168,17.906738],[72.993945,18.097705],[72.917188,18.576123],[72.875488,18.642822],[72.870898,18.683057],[72.89873,18.778955],[72.976855,18.927197],[73.005566,19.021094],[72.97207,19.15332],[72.900684,19.014502],[72.834668,18.975586],[72.803027,19.079297],[72.794531,19.2521],[72.811621,19.298926],[72.987207,19.277441],[72.787891,19.362988],[72.756445,19.450537],[72.799414,19.519824],[72.726562,19.578271],[72.697461,19.757129],[72.667773,19.830957],[72.708984,20.078027],[72.881152,20.563184],[72.89375,20.672754],[72.878906,20.828516],[72.840527,20.95249],[72.813867,21.117188],[72.751563,21.12915],[72.692383,21.177637],[72.623828,21.371973],[72.734766,21.470801],[72.613281,21.461816],[72.810547,21.619922],[73.022461,21.699609],[73.1125,21.750439],[72.979102,21.704687],[72.839746,21.687256],[72.543066,21.696582],[72.59248,21.877588],[72.644043,21.937988],[72.700195,21.971924],[72.61748,21.961719],[72.522266,21.976221],[72.553027,22.159961],[72.62793,22.199609],[72.80918,22.233301],[72.590137,22.278125],[72.455957,22.248096],[72.332617,22.270215],[72.182813,22.269727],[72.242578,22.245166],[72.306445,22.189209],[72.274414,22.089746],[72.244336,22.027637],[72.161719,21.984814],[72.094434,21.919971],[72.075586,21.862988],[72.037207,21.823047],[72.170898,21.774316],[72.210352,21.728223],[72.256641,21.66123],[72.254004,21.531006],[72.076563,21.224072],[72.015234,21.155713],[71.571094,20.970557],[71.396484,20.869775],[71.024609,20.738867],[70.879688,20.714502],[70.719336,20.74043],[70.485059,20.840186],[70.127344,21.094678],[70.034375,21.178809],[69.748438,21.505713],[69.541992,21.678564],[69.385449,21.839551],[69.191699,21.991504],[69.008789,22.196777],[68.969922,22.290283],[68.983496,22.3854],[69.05166,22.437305],[69.131348,22.41626],[69.194238,22.336084],[69.276563,22.285498],[69.549219,22.408398],[69.655176,22.403516],[69.727539,22.465186],[69.819043,22.451758],[70.005859,22.547705],[70.177246,22.572754],[70.44043,22.970312],[70.513477,23.00249],[70.489258,23.089502],[70.43457,23.0771],[70.339453,22.939746],[70.251172,22.970898],[70.118262,22.947021],[69.849805,22.856445],[69.739648,22.775195],[69.664648,22.759082],[69.235938,22.848535],[68.81709,23.053711],[68.640723,23.189941],[68.41748,23.571484],[68.453809,23.629492],[68.776758,23.8521],[68.496875,23.747998],[68.424902,23.705566],[68.343359,23.616846],[68.234961,23.596973],[68.165039,23.857324],[68.148828,23.797217],[68.115527,23.753369],[68.037012,23.848242],[68.001465,23.826074],[67.950977,23.828613],[67.859961,23.902686],[67.819043,23.828076],[67.668457,23.810986],[67.645801,23.919873],[67.563086,23.881836],[67.503613,23.940039],[67.476855,24.018262],[67.427637,24.064844],[67.365234,24.091602],[67.309375,24.174805],[67.288672,24.367773],[67.171484,24.756104],[67.100586,24.791943],[66.703027,24.860937],[66.682227,24.928857],[66.709863,25.111328],[66.698633,25.226318],[66.569922,25.378516],[66.533887,25.484375],[66.428613,25.575342],[66.324219,25.601807],[66.219043,25.589893],[66.162305,25.553906],[66.131152,25.493262],[66.356445,25.507373],[66.467676,25.445312],[66.234668,25.464355],[65.883594,25.419629],[65.679688,25.355273],[65.40625,25.374316],[65.061328,25.311084],[64.77666,25.307324],[64.658984,25.184082],[64.54375,25.23667],[64.152051,25.333447],[64.124902,25.373926],[64.059375,25.40293],[63.987305,25.351172],[63.935547,25.342529],[63.720898,25.385889],[63.556641,25.353174],[63.495703,25.29751],[63.491406,25.21084],[63.285742,25.227588],[63.17002,25.254883],[63.015039,25.224658],[62.664746,25.264795],[62.572461,25.254736],[62.444727,25.197266],[62.391211,25.152539],[62.315332,25.134912],[62.198633,25.224854],[62.089453,25.155322],[61.90791,25.131299],[61.743652,25.138184],[61.533105,25.195508],[61.412207,25.1021],[60.663867,25.282227],[60.615137,25.329834],[60.5875,25.413525],[60.510547,25.437061],[60.400195,25.311572],[60.0,25.37981143196722],[60.0,28.0],[98.0,28.0],[98.0,14.677973822175193],[97.936523,14.763916],[97.869141,14.738721],[97.812305,14.858936],[97.799805,15.184912],[97.74375,15.306787],[97.774219,15.430957],[97.710352,15.875537]]]}},{"type":"Feature","properties":{},"geometry":{"type":"Polygon","coordinates":[[[93.023242,19.828857],[92.975195,19.868018],[92.912695,19.999805],[92.914648,20.086475],[92.95957,20.046191],[93.010156,19.923926],[93.023242,19.828857]]]}},{"type":"Feature","properties":{},"geometry":{"type":"Polygon","coordinates":[[[91.961914,21.609766],[91.949219,21.508057],[91.888867,21.50332],[91.859473,21.532959],[91.873242,21.574414],[91.857031,21.708789],[91.933984,21.722168],[91.961914,21.609766]]]}},{"type":"Feature","properties":{},"geometry":{"type":"Polygon","coordinates":[[[91.837598,21.750244],[91.819727,21.809814],[91.835156,21.885352],[91.861328,21.92666],[91.88252,21.883643],[91.837598,21.750244]]]}},{"type":"Feature","properties":{},"geometry":{"type":"Polygon","coordinates":[[[91.044727,22.105176],[91.079492,22.519727],[91.158301,22.36543],[91.178223,22.283008],[91.150781,22.175195],[91.044727,22.105176]]]}},{"type":"Feature","properties":{},"geometry":{"type":"Polygon","coordinates":[[[90.560352,22.672559],[90.522559,22.74751],[90.50293,22.835352],[90.596484,22.863525],[90.672266,22.813184],[90.736914,22.638721],[90.868164,22.484863],[90.829883,22.159961],[90.777637,22.089307],[90.603613,22.054199],[90.515039,22.065137],[90.680469,22.32749],[90.674902,22.444971],[90.649219,22.540674],[90.564941,22.617627],[90.560352,22.672559]]]}},{"type":"Feature","properties":{},"geometry":{"type":"Polygon","coordinates":[[[91.556738,22.382227],[91.510449,22.352783],[91.466895,22.378418],[91.411328,22.475684],[91.438867,22.598828],[91.456055,22.616504],[91.54834,22.425391],[91.556738,22.382227]]]}},{"type":"Feature","properties":{},"geometry":{"type":"Polygon","coordinates":[[[90.562305,22.975439],[90.536328,23.014893],[90.579883,23.035449],[90.65957,22.92002],[90.562305,22.975439]]]}},{"type":"Feature","properties":{},"geometry":{"type":"Polygon","coordinates":[[[97.82041,0.564453],[97.683984,0.596094],[97.68252,0.641064],[97.603906,0.833887],[97.46123,0.941406],[97.405371,0.946973],[97.368848,1.056934],[97.296875,1.187354],[97.079199,1.425488],[97.244238,1.423633],[97.324414,1.481641],[97.355957,1.539746],[97.481543,1.465088],[97.69834,1.18374],[97.786426,1.145898],[97.931934,0.973926],[97.902051,0.884229],[97.876465,0.62832],[97.82041,0.564453]]]}},{"type":"Feature","properties":{},"geometry":{"type":"Polygon","coordinates":[[[97.328711,2.148535],[97.32832,2.053271],[97.225098,2.158496],[97.108301,2.216895],[97.156641,2.232227],[97.291406,2.20083],[97.328711,2.148535]]]}},{"type":"Feature","properties":{},"geometry":{"type":"Polygon","coordinates":[[[95.808594,2.655615],[95.733008,2.766504],[95.717188,2.825977],[95.772168,2.85498],[95.80625,2.916016],[95.895801,2.889062],[95.997852,2.781396],[96.101562,2.741211],[96.17998,2.661328],[96.417285,2.515186],[96.459375,2.41582],[96.463672,2.36001],[96.400977,2.350684],[96.340625,2.37207],[96.29043,2.42959],[96.021973,2.595752],[95.938477,2.598437],[95.879785,2.640918],[95.808594,2.655615]]]}},{"type":"Feature","properties":{},"geometry":{"type":"Polygon","coordinates":[[[97.547168,5.205859],[97.706738,5.040137],[97.908398,4.87998],[97.966602,4.77749],[98.0,4.662003586132638],[98.0,2.239711396761554],[97.79502,2.282861],[97.700781,2.358545],[97.662012,2.494287],[97.616797,2.785107],[97.59082,2.846582],[97.391309,2.975293],[96.968945,3.575146],[96.893945,3.653711],[96.800977,3.708545],[96.525391,3.766602],[96.444727,3.816309],[96.230078,4.072754],[95.987988,4.263281],[95.578613,4.661963],[95.494727,4.761377],[95.206641,5.284033],[95.24707,5.410791],[95.227832,5.564795],[95.396094,5.628809],[95.628906,5.609082],[95.737305,5.579297],[95.841309,5.514502],[96.027344,5.351172],[96.133301,5.294287],[96.615234,5.220215],[96.842676,5.274463],[96.967773,5.269141],[97.19043,5.207324],[97.451172,5.236035],[97.500195,5.22832],[97.547168,5.205859]]]}},{"type":"Feature","properties":{},"geometry":{"type":"Polygon","coordinates":[[[95.362109,5.812402],[95.342578,5.784131],[95.283203,5.798535],[95.217676,5.889502],[95.241992,5.907031],[95.35918,5.876758],[95.362109,5.812402]]]}},{"type":"Feature","properties":{},"geometry":{"type":"Polygon","coordinates":[[[93.822461,7.236621],[93.858984,7.206836],[93.92959,6.973486],[93.890039,6.831055],[93.828809,6.748682],[93.709277,7.000684],[93.658008,7.016064],[93.656348,7.13623],[93.68418,7.183594],[93.822461,7.236621]]]}},{"type":"Feature","properties":{},"geometry":{"type":"Polygon","coordinates":[[[93.638477,7.261865],[93.597266,7.31875],[93.614258,7.358105],[93.69248,7.410596],[93.733594,7.356494],[93.638477,7.261865]]]}},{"type":"Feature","properties":{},"geometry":{"type":"Polygon","coordinates":[[[93.442578,7.877832],[93.365039,7.876562],[93.309375,7.964014],[93.334473,8.006934],[93.375488,8.01792],[93.433691,7.948389],[93.447363,7.899121],[93.442578,7.877832]]]}},{"type":"Feature","properties":{},"geometry":{"type":"Polygon","coordinates":[[[93.536914,8.056641],[93.490039,8.019434],[93.471777,8.052686],[93.456445,8.171875],[93.494043,8.224658],[93.531641,8.21377],[93.511621,8.159766],[93.536914,8.056641]]]}},{"type":"Feature","properties":{},"geometry":{"type":"Polygon","coordinates":[[[93.115234,8.218506],[93.064258,8.274951],[93.096973,8.349365],[93.170605,8.212061],[93.115234,8.218506]]]}},{"type":"Feature","properties":{},"geometry":{"type":"Polygon","coordinates":[[[92.981738,11.959473],[92.955371,12.002441],[93.017383,12.036816],[93.062109,11.899414],[92.981738,11.959473]]]}},{"type":"Feature","properties":{},"geometry":{"type":"Polygon","coordinates":[[[98.0,12.392591306506569],[98.0,12.281010852488826],[97.938672,12.346094],[98.0,12.392591306506569]]]}},{"type":"Feature","properties":{},"geometry":{"type":"Polygon","coordinates":[[[97.976562,14.461475],[97.909766,14.652686],[97.929297,14.695557],[98.0,14.66159461520575],[97.998438,14.335303],[97.976562,14.461475]]]}},{"type":"Feature","properties":{},"geometry":{"type":"Polygon","coordinates":[[[94.828027,15.933008],[94.838184,15.89209],[94.784375,15.793848],[94.733496,15.823047],[94.828027,15.933008]]]}},{"type":"Feature","properties":{},"geometry":{"type":"Polygon","coordinates":[[[94.566113,16.019287],[94.476758,15.945947],[94.411914,15.848389],[94.387891,15.994141],[94.49375,16.075342],[94.60127,16.205518],[94.618652,16.141309],[94.566113,16.019287]]]}},{"type":"Feature","properties":{},"geometry":{"type":"Polygon","coordinates":[[[97.599609,16.429541],[97.575,16.253223],[97.537207,16.240137],[97.480371,16.305713],[97.469141,16.461035],[97.541992,16.505078],[97.579004,16.486035],[97.599609,16.429541]]]}},{"type":"Feature","properties":{},"geometry":{"type":"Polygon","coordinates":[[[93.745508,18.808057],[93.718359,18.715723],[93.674023,18.675684],[93.569922,18.75957],[93.4875,18.867529],[93.618262,18.888818],[93.744727,18.865527],[93.745508,18.808057]]]}},{"type":"Feature","properties":{},"geometry":{"type":"Polygon","coordinates":[[[93.815234,19.298682],[93.755859,19.325684],[93.732324,19.416309],[93.662207,19.458936],[93.644043,19.495068],[93.714844,19.558252],[93.829492,19.475293],[93.874707,19.481055],[93.945703,19.428613],[93.947461,19.408154],[93.933984,19.36543],[93.901953,19.332031],[93.815234,19.298682]]]}},{"type":"Feature","properties":{},"geometry":{"type":"Polygon","coordinates":[[[93.412891,19.950342],[93.491797,19.892578],[93.513281,19.754785],[93.444629,19.806445],[93.412891,19.950342]]]}}]}